STARLINK-1227           
1 45230U 20012BE  26068.18453812  .00001087  00000+0  47655-4 0  9999
2 45230  53.1607   1.2165 0001062  82.0274 278.0847 15.31040019335455
KUIPER-00209            
1 67776U 26030N   26068.61786546  .00035298  00000+0  11963-2 0  9997
2 67776  51.8838 220.0775 0012191  59.1967 301.0215 15.30161950  5077
